NAVSTAR 77 (USA 289)    
1 43873U 18109A   24052.38005997 -.00000030  00000+0  00000+0 0  9990
2 43873  55.2503 125.6434 0028824 194.2692 137.2406  2.00574327 38081
